GLOBALSTAR M045         
1 25676U 99019A   25007.81869720 -.00000040  00000+0  46862-3 0  9992
2 25676  51.9984  42.3518 0000365 201.1871 330.0945 12.27055004173709
GLOBALSTAR M019         
1 25677U 99019B   25007.79902601 -.00000155  00000+0 -68078-3 0  9997
2 25677  51.9859 161.4861 0001355  60.5165  85.3291 12.13871261165664
GLOBALSTAR M044         
1 25678U 99019C   25007.72292608 -.00000027  00000+0  79090-3 0  9993
2 25678  51.9975  92.9846 0007179  96.6190  70.1991 11.90247980152218
GLOBALSTAR M042         
1 25679U 99019D   25007.78126103 -.00000033  00000+0  55442-3 0  9998
2 25679  51.9999 143.7815 0002101 344.9883 189.1748 12.22076508165648
GLOBALSTAR M025         
1 25770U 99031A   25007.86817850 -.00000046  00000+0  64935-3 0  9990
2 25770  51.9782 170.6607 0001070 177.8713 332.3658 11.22558660463700
GLOBALSTAR M049         
1 25771U 99031B   25007.81993500 -.00000101  00000+0 -12434-2 0  9992
2 25771  51.9834 197.4778 0004683  99.7247 260.4078 11.12111556 99588
GLOBALSTAR M047         
1 25772U 99031C   25007.87083859 -.00000066  00000+0  11068-3 0  9998
2 25772  51.9797 209.6501 0016225 352.3351   7.7205 11.31926009452952
GLOBALSTAR M052         
1 25773U 99031D   25007.61247036 -.00000071  00000+0 -16345-3 0  9990
2 25773  51.9893 308.8838 0002074 278.5421 252.6706 11.15056369460590
